start=new Date('2021-10-22T00:00:00.000Z').valueOf();
sats=[{"REF_FRAME":"TEME","MEAN_ELEMENT_THEORY":"SGP4","INCLINATION":"53.0545","BSTAR":"0.00006749800000","CLASSIFICATION_TYPE":"U","NORAD_CAT_ID":"45741","COUNTRY_CODE":"US","OBJECT_TYPE":"PAYLOAD","GP_ID":"187838202","MEAN_MOTION_DDOT":"0.0000000000000","OBJECT_ID":"2020-038M","FILE":"3176920","SITE":"AFETR","MEAN_ANOMALY":"287.6570","CENTER_NAME":"EARTH","PERIOD":"95.592","OBJECT_NAME":"STARLINK-1480","RCS_SIZE":"LARGE","ECCENTRICITY":"0.00015840","DECAY_DATE":null,"MEAN_MOTION":"15.06400682","TLE_LINE2":"2 45741  53.0545 219.0754 0001584  72.4592 287.6570 15.06400682 75054","ARG_OF_PERICENTER":"72.4592","LAUNCH_DATE":"2020-06-13","EPOCH":"2021-10-21T17:47:00.903552","SEMIMAJOR_AXIS":"6925.346","PERIAPSIS":"546.114","ELEMENT_SET_NO":"999","RA_OF_ASC_NODE":"219.0754","TIME_SYSTEM":"UTC","EPHEMERIS_TYPE":"0","APOAPSIS":"548.308","MEAN_MOTION_DOT":"0.00000724","REV_AT_EPOCH":"7505","TLE_LINE1":"1 45741U 20038M   21294.74098268  .00000724  00000-0  67498-4 0  9997"},{"MEAN_MOTION_DDOT":"0.0000000000000","GP_ID":"187837953","FILE":"3176920","SITE":"AFETR","MEAN_ANOMALY":"279.9054","OBJECT_ID":"2020-038N","INCLINATION":"53.0539","BSTAR":"0.00012521000000","REF_FRAME":"TEME","MEAN_ELEMENT_THEORY":"SGP4","NORAD_CAT_ID":"45742","COUNTRY_CODE":"US","OBJECT_TYPE":"PAYLOAD","CLASSIFICATION_TYPE":"U","EPOCH":"2021-10-21T22:23:00.501216","LAUNCH_DATE":"2020-06-13","SEMIMAJOR_AXIS":"6925.349","ELEMENT_SET_NO":"999","PERIAPSIS":"546.077","DECAY_DATE":null,"TLE_LINE2":"2 45742  53.0539 218.2079 0001643  80.2121 279.9054 15.06399733 75066","ARG_OF_PERICENTER":"80.2121","MEAN_MOTION":"15.06399733","APOAPSIS":"548.352","MEAN_MOTION_DOT":"0.00001584","TLE_LINE1":"1 45742U 20038N   21294.93264469  .00001584  00000-0  12521-3 0  9998","REV_AT_EPOCH":"7506","RA_OF_ASC_NODE":"218.2079","TIME_SYSTEM":"UTC","EPHEMERIS_TYPE":"0","OBJECT_NAME":"STARLINK-1481","CENTER_NAME":"EARTH","PERIOD":"95.592","ECCENTRICITY":"0.00016430","RCS_SIZE":"LARGE"},{"BSTAR":"-0.00009886400000","INCLINATION":"53.0545","REF_FRAME":"TEME","MEAN_ELEMENT_THEORY":"SGP4","COUNTRY_CODE":"US","NORAD_CAT_ID":"45743","OBJECT_TYPE":"PAYLOAD","CLASSIFICATION_TYPE":"U","MEAN_MOTION_DDOT":"0.0000000000000","GP_ID":"187809056","SITE":"AFETR","FILE":"3176553","MEAN_ANOMALY":"290.8963","OBJECT_ID":"2020-038P","OBJECT_NAME":"STARLINK-1483","CENTER_NAME":"EARTH","PERIOD":"95.592","ECCENTRICITY":"0.00016220","RCS_SIZE":"LARGE","SEMIMAJOR_AXIS":"6925.353","LAUNCH_DATE":"2020-06-13","EPOCH":"2021-10-21T12:02:02.014080","PERIAPSIS":"546.095","ELEMENT_SET_NO":"999","DECAY_DATE":null,"TLE_LINE2":"2 45743  53.0545 220.1491 0001622  69.2199 290.8963 15.06398418 75007","ARG_OF_PERICENTER":"69.2199","MEAN_MOTION":"15.06398418","APOAPSIS":"548.342","MEAN_MOTION_DOT":"-0.00001754","REV_AT_EPOCH":"7500","TLE_LINE1":"1 45743U 20038P   21294.50141220 -.00001754  00000-0 -98864-4 0  9997","TIME_SYSTEM":"UTC","EPHEMERIS_TYPE":"0","RA_OF_ASC_NODE":"220.1491"},{"APOAPSIS":"548.290","MEAN_MOTION_DOT":"-0.00000706","REV_AT_EPOCH":"7507","TLE_LINE1":"1 45744U 20038Q   21294.92160780 -.00000706  00000-0 -28488-4 0  9997","TIME_SYSTEM":"UTC","EPHEMERIS_TYPE":"0","RA_OF_ASC_NODE":"218.2674","LAUNCH_DATE":"2020-06-13","EPOCH":"2021-10-21T22:07:06.913920","SEMIMAJOR_AXIS":"6925.359","ELEMENT_SET_NO":"999","PERIAPSIS":"546.158","DECAY_DATE":null,"ARG_OF_PERICENTER":"78.3089","TLE_LINE2":"2 45744  53.0547 218.2674 0001539  78.3089 281.8073 15.06396695 75071","MEAN_MOTION":"15.06396695","ECCENTRICITY":"0.00015390","RCS_SIZE":"LARGE","OBJECT_NAME":"STARLINK-1500","CENTER_NAME":"EARTH","PERIOD":"95.592","SITE":"AFETR","FILE":"3176920","MEAN_ANOMALY":"281.8073","OBJECT_ID":"2020-038Q","MEAN_MOTION_DDOT":"0.0000000000000","GP_ID":"187839449","COUNTRY_CODE":"US","NORAD_CAT_ID":"45744","OBJECT_TYPE":"PAYLOAD","CLASSIFICATION_TYPE":"U","BSTAR":"-0.00002848800000","INCLINATION":"53.0547","REF_FRAME":"TEME","MEAN_ELEMENT_THEORY":"SGP4"},{"OBJECT_TYPE":"PAYLOAD","COUNTRY_CODE":"US","NORAD_CAT_ID":"45745","CLASSIFICATION_TYPE":"U","BSTAR":"0.00004231400000","INCLINATION":"53.0548","MEAN_ELEMENT_THEORY":"SGP4","REF_FRAME":"TEME","MEAN_ANOMALY":"285.1058","SITE":"AFETR","FILE":"3176553","OBJECT_ID":"2020-038R","MEAN_MOTION_DDOT":"0.0000000000000","GP_ID":"187809557","ECCENTRICITY":"0.00015830","RCS_SIZE":"LARGE","OBJECT_NAME":"STARLINK-1503","PERIOD":"95.592","CENTER_NAME":"EARTH","REV_AT_EPOCH":"7500","TLE_LINE1":"1 45745U 20038R   21294.51245879  .00000349  00000-0  42314-4 0  9991","APOAPSIS":"548.323","MEAN_MOTION_DOT":"0.00000349","TIME_SYSTEM":"UTC","EPHEMERIS_TYPE":"0","RA_OF_ASC_NODE":"220.1007","PERIAPSIS":"546.130","ELEMENT_SET_NO":"999","SEMIMAJOR_AXIS":"6925.362","LAUNCH_DATE":"2020-06-13","EPOCH":"2021-10-21T12:17:56.439456","ARG_OF_PERICENTER":"75.0107","TLE_LINE2":"2 45745  53.0548 220.1007 0001583  75.0107 285.1058 15.06395716 75005","MEAN_MOTION":"15.06395716","DECAY_DATE":null},{"MEAN_ELEMENT_THEORY":"SGP4","REF_FRAME":"TEME","BSTAR":"0.00000647480000","INCLINATION":"53.0533","CLASSIFICATION_TYPE":"U","OBJECT_TYPE":"PAYLOAD","COUNTRY_CODE":"US","NORAD_CAT_ID":"45746","GP_ID":"187808307","MEAN_MOTION_DDOT":"0.0000000000000","OBJECT_ID":"2020-038S","MEAN_ANOMALY":"291.1335","SITE":"AFETR","FILE":"3176553","PERIOD":"95.592","CENTER_NAME":"EARTH","OBJECT_NAME":"STARLINK-1504","RCS_SIZE":"LARGE","ECCENTRICITY":"0.00015980","MEAN_MOTION":"15.06396779","TLE_LINE2":"2 45746  53.0533 220.0352 0001598  68.9825 291.1335 15.06396779 75001","ARG_OF_PERICENTER":"68.9825","DECAY_DATE":null,"ELEMENT_SET_NO":"999","PERIAPSIS":"546.117","SEMIMAJOR_AXIS":"6925.358","LAUNCH_DATE":"2020-06-13","EPOCH":"2021-10-21T12:39:09.463104","TIME_SYSTEM":"UTC","EPHEMERIS_TYPE":"0","RA_OF_ASC_NODE":"220.0352","REV_AT_EPOCH":"7500","TLE_LINE1":"1 45746U 20038S   21294.52719286 -.00000185  00000-0  64748-5 0  9996","APOAPSIS":"548.330","MEAN_MOTION_DOT":"-0.00000185"},{"CLASSIFICATION_TYPE":"U","NORAD_CAT_ID":"45747","COUNTRY_CODE":"US","OBJECT_TYPE":"PAYLOAD","REF_FRAME":"TEME","MEAN_ELEMENT_THEORY":"SGP4","INCLINATION":"53.0542","BSTAR":"-0.00009314400000","OBJECT_ID":"2020-038T","FILE":"3176683","SITE":"AFETR","MEAN_ANOMALY":"292.3027","GP_ID":"187815750","MEAN_MOTION_DDOT":"0.0000000000000","RCS_SIZE":"LARGE","ECCENTRICITY":"0.00017220","CENTER_NAME":"EARTH","PERIOD":"95.592","OBJECT_NAME":"STARLINK-1506","RA_OF_ASC_NODE":"220.0137","TIME_SYSTEM":"UTC","EPHEMERIS_TYPE":"0","MEAN_MOTION_DOT":"-0.00001669","APOAPSIS":"548.414","REV_AT_EPOCH":"7593","TLE_LINE1":"1 45747U 20038T   21294.53089570 -.00001669  00000-0 -93144-4 0  9994","DECAY_DATE":null,"MEAN_MOTION":"15.06397552","TLE_LINE2":"2 45747  53.0542 220.0137 0001722  67.8145 292.3027 15.06397552 75938","ARG_OF_PERICENTER":"67.8145","LAUNCH_DATE":"2020-06-13","SEMIMAJOR_AXIS":"6925.356","EPOCH":"2021-10-21T12:44:29.388480","PERIAPSIS":"546.029","ELEMENT_SET_NO":"999"},{"GP_ID":"187838950","MEAN_MOTION_DDOT":"0.0000000000000","OBJECT_ID":"2020-038U","FILE":"3176920","SITE":"AFETR","MEAN_ANOMALY":"277.6270","REF_FRAME":"TEME","MEAN_ELEMENT_THEORY":"SGP4","INCLINATION":"53.0533","BSTAR":"0.00011412000000","CLASSIFICATION_TYPE":"U","NORAD_CAT_ID":"45748","COUNTRY_CODE":"US","OBJECT_TYPE":"PAYLOAD","DECAY_DATE":null,"ARG_OF_PERICENTER":"82.4901","TLE_LINE2":"2 45748  53.0533 218.2990 0001608  82.4901 277.6270 15.06397296 75066","MEAN_MOTION":"15.06397296","LAUNCH_DATE":"2020-06-13","SEMIMAJOR_AXIS":"6925.357","EPOCH":"2021-10-21T21:56:28.320288","ELEMENT_SET_NO":"999","PERIAPSIS":"546.108","RA_OF_ASC_NODE":"218.2990","TIME_SYSTEM":"UTC","EPHEMERIS_TYPE":"0","APOAPSIS":"548.335","MEAN_MOTION_DOT":"0.00001419","REV_AT_EPOCH":"7506","TLE_LINE1":"1 45748U 20038U   21294.91421667  .00001419  00000-0  11412-3 0  9992","CENTER_NAME":"EARTH","PERIOD":"95.592","OBJECT_NAME":"STARLINK-1507","RCS_SIZE":"LARGE","ECCENTRICITY":"0.00016080"},{"OBJECT_NAME":"STARLINK-1391","CENTER_NAME":"EARTH","PERIOD":"95.593","ECCENTRICITY":"0.00015960","RCS_SIZE":"LARGE","SEMIMAJOR_AXIS":"6925.390","LAUNCH_DATE":"2020-06-13","EPOCH":"2021-10-21T22:41:36.195648","ELEMENT_SET_NO":"999","PERIAPSIS":"546.149","DECAY_DATE":null,"TLE_LINE2":"2 45750  53.0556 198.1570 0001596  72.5159 287.6004 15.06386552 75367","ARG_OF_PERICENTER":"72.5159","MEAN_MOTION":"15.06386552","APOAPSIS":"548.360","MEAN_MOTION_DOT":"-0.00000271","TLE_LINE1":"1 45750U 20038W   21294.94555782 -.00000271  00000-0  73129-6 0  9996","REV_AT_EPOCH":"7536","EPHEMERIS_TYPE":"0","TIME_SYSTEM":"UTC","RA_OF_ASC_NODE":"198.1570","BSTAR":"0.00000073129000","INCLINATION":"53.0556","REF_FRAME":"TEME","MEAN_ELEMENT_THEORY":"SGP4","COUNTRY_CODE":"US","NORAD_CAT_ID":"45750","OBJECT_TYPE":"PAYLOAD","CLASSIFICATION_TYPE":"U","MEAN_MOTION_DDOT":"0.0000000000000","GP_ID":"187838203","SITE":"AFETR","FILE":"3176920","MEAN_ANOMALY":"287.6004","OBJECT_ID":"2020-038W"},{"OBJECT_NAME":"STARLINK-1464","CENTER_NAME":"EARTH","PERIOD":"95.592","ECCENTRICITY":"0.00016820","RCS_SIZE":"LARGE","LAUNCH_DATE":"2020-06-13","SEMIMAJOR_AXIS":"6925.344","EPOCH":"2021-10-21T22:36:16.559712","PERIAPSIS":"546.045","ELEMENT_SET_NO":"999","DECAY_DATE":null,"TLE_LINE2":"2 45751  53.0530 198.1712 0001682  79.9096 280.2083 15.06401362 75368","MEAN_MOTION":"15.06401362","ARG_OF_PERICENTER":"79.9096","APOAPSIS":"548.374","MEAN_MOTION_DOT":"0.00000362","TLE_LINE1":"1 45751U 20038X   21294.94185833  .00000362  00000-0  43214-4 0  9993","REV_AT_EPOCH":"7536","EPHEMERIS_TYPE":"0","TIME_SYSTEM":"UTC","RA_OF_ASC_NODE":"198.1712","BSTAR":"0.00004321400000","INCLINATION":"53.0530","REF_FRAME":"TEME","MEAN_ELEMENT_THEORY":"SGP4","COUNTRY_CODE":"US","NORAD_CAT_ID":"45751","OBJECT_TYPE":"PAYLOAD","CLASSIFICATION_TYPE":"U","MEAN_MOTION_DDOT":"0.0000000000000","GP_ID":"187837954","SITE":"AFETR","FILE":"3176920","MEAN_ANOMALY":"280.2083","OBJECT_ID":"2020-038X"}];
